*******************************************************************************
Ephemeris / WWW_USER Tue Mar 27 21:53:19 2018 Pasadena, USA      / Horizons    
*******************************************************************************
Target body name: 136199 Eris (2003 UB313)        {source: JPL#59}
Center body name: Solar System Barycenter (0)     {source: DE431}
Center-site name: BODY CENTER
*******************************************************************************
Start time      : A.D. 2018-Feb-08 00:00:00.0000 TDB
Stop  time      : A.D. 2019-Feb-08 00:00:00.0000 TDB
Step-size       : 7200 minutes
*******************************************************************************
Center geodetic : 0.00000000,0.00000000,0.0000000 {E-lon(deg),Lat(deg),Alt(km)}
Center cylindric: 0.00000000,0.00000000,0.0000000 {E-lon(deg),Dxy(km),Dz(km)}
Center radii    : (undefined)                                                  
Small perturbers: Yes                             {source: SB431-N16}
Output units    : AU-D                                                         
Output type     : GEOMETRIC cartesian states
Output format   : 2 (position and velocity)
Reference frame : ICRF/J2000.0                                                 
Coordinate systm: Ecliptic and Mean Equinox of Reference Epoch                 
*******************************************************************************
Initial IAU76/J2000 heliocentric ecliptic osculating elements (au, days, deg.):
  EPOCH=  2455936.5 ! 2012-Jan-10.00 (TDB)         Residual RMS= .2495         
   EC= .4344606714175216   QR= 38.48659940403228   TP= 2545919.4421254303      
   OM= 36.06473954858459   W=  150.8940778730555   IN= 43.81785695462196       
  Equivalent ICRF heliocentric equatorial cartesian coordinates (au, au/d):
   X= 8.724248031513278E+01  Y= 4.086442322023402E+01  Z=-6.480603118127547E+00
  VX=-3.283210547726760E-04 VY= 4.899240089127559E-04 VZ= 1.197172800824818E-03
Asteroid physical parameters (km, seconds, rotational period in hours):        
   GM= n.a.                RAD= n.a.               ROTPER= 25.9                
   H= -1.1                 G= .150                 B-V= n.a.                   
                           ALBEDO= n.a.            STYP= n.a.                  
*******************************************************************************
JDTDB
   X     Y     Z
   VX    VY    VZ
*******************************************************************************
$$SOE
2458342.500000000 = A.D. 2018-Aug-12 00:00:00.0000 TDB 
   8.637657381712953E+01  3.709528823169133E+01 -2.000660281987910E+01
  -3.931989409311466E-04  8.924144164898682E-04  9.202452277172308E-04
2458347.500000000 = A.D. 2018-Aug-17 00:00:00.0000 TDB 
   8.637460746205890E+01  3.709975014900220E+01 -2.000200151027573E+01
  -3.933430875215630E-04  8.923525062985866E-04  9.202786125263265E-04
2458352.500000000 = A.D. 2018-Aug-22 00:00:00.0000 TDB 
   8.637264038625227E+01  3.710421175673868E+01 -1.999740003376490E+01
  -3.934872353314755E-04  8.922905867296147E-04  9.203119906970554E-04
2458357.500000000 = A.D. 2018-Aug-27 00:00:00.0000 TDB 
   8.637067258970355E+01  3.710867305485386E+01 -1.999279839037981E+01
  -3.936313843611184E-04  8.922286577821726E-04  9.203453622290420E-04
2458362.500000000 = A.D. 2018-Sep-01 00:00:00.0000 TDB 
   8.636870407240662E+01  3.711313404330087E+01 -1.998819658015367E+01
  -3.937755346107272E-04  8.921667194554791E-04  9.203787271219117E-04
2458367.500000000 = A.D. 2018-Sep-06 00:00:00.0000 TDB 
   8.636673483435541E+01  3.711759472203279E+01 -1.998359460311967E+01
  -3.939196860804867E-04  8.921047717486332E-04  9.204120853752931E-04
2458372.500000000 = A.D. 2018-Sep-11 00:00:00.0000 TDB 
   8.636476487554376E+01  3.712205509100273E+01 -1.997899245931099E+01
  -3.940638387707465E-04  8.920428146611016E-04  9.204454369888078E-04
2458377.500000000 = A.D. 2018-Sep-16 00:00:00.0000 TDB 
   8.636279419596565E+01  3.712651515016378E+01 -1.997439014876085E+01
  -3.942079926816972E-04  8.919808481919864E-04  9.204787819620849E-04
2458382.500000000 = A.D. 2018-Sep-21 00:00:00.0000 TDB 
   8.636082279561491E+01  3.713097489946901E+01 -1.996978767150244E+01
  -3.943521478135820E-04  8.919188723405049E-04  9.205121202947505E-04
2458387.500000000 = A.D. 2018-Sep-26 00:00:00.0000 TDB 
   8.635885067448548E+01  3.713543433887155E+01 -1.996518502756897E+01
  -3.944963041666457E-04  8.918568871058733E-04  9.205454519864336E-04
2458392.500000000 = A.D. 2018-Oct-01 00:00:00.0000 TDB 
   8.635687783257124E+01  3.713989346832443E+01 -1.996058221699364E+01
  -3.946404617411349E-04  8.917948924873057E-04  9.205787770367616E-04
2458397.500000000 = A.D. 2018-Oct-06 00:00:00.0000 TDB 
   8.635490426986604E+01  3.714435228778078E+01 -1.995597923980967E+01
  -3.947846205372974E-04  8.917328884840156E-04  9.206120954453629E-04
2458402.500000000 = A.D. 2018-Oct-11 00:00:00.0000 TDB 
   8.635292998636382E+01  3.714881079719363E+01 -1.995137609605026E+01
  -3.949287805553828E-04  8.916708750952149E-04  9.206454072118666E-04
2458407.500000000 = A.D. 2018-Oct-16 00:00:00.0000 TDB 
   8.635095498205844E+01  3.715326899651608E+01 -1.994677278574862E+01
  -3.950729417956422E-04  8.916088523201150E-04  9.206787123359024E-04
2458412.500000000 = A.D. 2018-Oct-21 00:00:00.0000 TDB 
   8.634897925694382E+01  3.715772688570119E+01 -1.994216930893797E+01
  -3.952171042583279E-04  8.915468201579245E-04  9.207120108170999E-04
2458417.500000000 = A.D. 2018-Oct-26 00:00:00.0000 TDB 
   8.634700281101384E+01  3.716218446470202E+01 -1.993756566565153E+01
  -3.953612679438362E-04  8.914847786079315E-04  9.207453026551241E-04
2458422.500000000 = A.D. 2018-Oct-31 00:00:00.0000 TDB 
   8.634502564426236E+01  3.716664173347161E+01 -1.993296185592250E+01
  -3.955054328521111E-04  8.914227276691685E-04  9.207785878495297E-04
2458427.500000000 = A.D. 2018-Nov-05 00:00:00.0000 TDB 
   8.634304775668329E+01  3.717109869196305E+01 -1.992835787978410E+01
  -3.956495989835486E-04  8.913606673409189E-04  9.208118663999817E-04
2458432.500000000 = A.D. 2018-Nov-10 00:00:00.0000 TDB 
   8.634106914827049E+01  3.717555534012937E+01 -1.992375373726957E+01
  -3.957937663384000E-04  8.912985976223829E-04  9.208451383061103E-04
2458437.500000000 = A.D. 2018-Nov-15 00:00:00.0000 TDB 
   8.633908981901787E+01  3.718001167792362E+01 -1.991914942841212E+01
  -3.959379349169176E-04  8.912365185127588E-04  9.208784035675454E-04
2458442.500000000 = A.D. 2018-Nov-20 00:00:00.0000 TDB 
   8.633710976891928E+01  3.718446770529885E+01 -1.991454495324497E+01
  -3.960821047193544E-04  8.911744300112441E-04  9.209116621839177E-04
2458447.500000000 = A.D. 2018-Nov-25 00:00:00.0000 TDB 
   8.633512899796864E+01  3.718892342220808E+01 -1.990994031180135E+01
  -3.962262757459642E-04  8.911123321170333E-04  9.209449141548574E-04
2458452.500000000 = A.D. 2018-Nov-30 00:00:00.0000 TDB 
   8.633314750615978E+01  3.719337882860436E+01 -1.990533550411450E+01
  -3.963704479970020E-04  8.910502248293204E-04  9.209781594799959E-04
2458457.500000000 = A.D. 2018-Dec-05 00:00:00.0000 TDB 
   8.633116529348661E+01  3.719783392444072E+01 -1.990073053021763E+01
  -3.965146214727238E-04  8.909881081472974E-04  9.210113981589645E-04
2458462.500000000 = A.D. 2018-Dec-10 00:00:00.0000 TDB 
   8.632918235994300E+01  3.720228870967018E+01 -1.989612539014398E+01
  -3.966587961733860E-04  8.909259820701547E-04  9.210446301913947E-04
2458467.500000000 = A.D. 2018-Dec-15 00:00:00.0000 TDB 
   8.632719870552283E+01  3.720674318424577E+01 -1.989152008392679E+01
  -3.968029720989260E-04  8.908638465971457E-04  9.210778555768080E-04
2458472.500000000 = A.D. 2018-Dec-20 00:00:00.0000 TDB 
   8.632521433021996E+01  3.721119734812049E+01 -1.988691461159929E+01
  -3.969471492503243E-04  8.908017017273117E-04  9.211110743150858E-04
2458477.500000000 = A.D. 2018-Dec-25 00:00:00.0000 TDB 
   8.632322923402828E+01  3.721565120124738E+01 -1.988230897319472E+01
  -3.970913276275146E-04  8.907395474599038E-04  9.211442864057473E-04
2458482.500000000 = A.D. 2018-Dec-30 00:00:00.0000 TDB 
   8.632124341694163E+01  3.722010474357941E+01 -1.987770316874631E+01
  -3.972355072307745E-04  8.906773837941024E-04  9.211774918484321E-04
2458487.500000000 = A.D. 2019-Jan-04 00:00:00.0000 TDB 
   8.631925687895392E+01  3.722455797506964E+01 -1.987309719828732E+01
  -3.973796880603847E-04  8.906152107290859E-04  9.212106906427799E-04
2458492.500000000 = A.D. 2019-Jan-09 00:00:00.0000 TDB 
   8.631726962005899E+01  3.722901089567105E+01 -1.986849106185096E+01
  -3.975238701166273E-04  8.905530282640307E-04  9.212438827884307E-04
2458497.500000000 = A.D. 2019-Jan-14 00:00:00.0000 TDB 
   8.631528164025072E+01  3.723346350533662E+01 -1.986388475947051E+01
  -3.976680533997878E-04  8.904908363981112E-04  9.212770682850259E-04
2458502.500000000 = A.D. 2019-Jan-19 00:00:00.0000 TDB 
   8.631329293952295E+01  3.723791580401935E+01 -1.985927829117919E+01
  -3.978122379101533E-04  8.904286351305001E-04  9.213102471322077E-04
2458507.500000000 = A.D. 2019-Jan-24 00:00:00.0000 TDB 
   8.631130351786958E+01  3.724236779167225E+01 -1.985467165701027E+01
  -3.979564236480136E-04  8.903664244603679E-04  9.213434193296186E-04
2458512.500000000 = A.D. 2019-Jan-29 00:00:00.0000 TDB 
   8.630931337528443E+01  3.724681946824829E+01 -1.985006485699698E+01
  -3.981006106137267E-04  8.903042043867310E-04  9.213765848769429E-04
2458517.500000000 = A.D. 2019-Feb-03 00:00:00.0000 TDB 
   8.630732251176141E+01  3.725127083370045E+01 -1.984545789117259E+01
  -3.982447988074441E-04  8.902419749090861E-04  9.214097437737371E-04
2458522.500000000 = A.D. 2019-Feb-08 00:00:00.0000 TDB 
   8.630533092729432E+01  3.725572188798171E+01 -1.984085075957034E+01
  -3.983889882295203E-04  8.901797360264648E-04  9.214428960196820E-04
